BATSU-CS1 (IRAZU)       
1 43468U 98067NR  20064.05831928  .04860327  12102-4  10158-2 0  9990
2 43468  51.6208  66.1430 0002240 149.8670 210.2481 16.30203714203978
CUBERRT                 
1 43546U 98067NU  20085.91761227  .00017353  00000-0  14321-3 0  9995
2 43546  51.6363 349.1494 0004343 122.5871 237.5546 15.70433706 97107
TEMPEST-D               
1 43547U 98067NV  20085.21703313  .00021581  00000-0  25497-3 0  9995
2 43547  51.6384  16.8092 0005937  95.8648 264.3022 15.61231270 96352
RAINCUBE                
1 43548U 98067NW  20085.04514789  .00022921  00000-0  19079-3 0  9992
2 43548  51.6357   2.0498 0005457 121.5527 238.6004 15.70006521 96982
HALOSAT                 
1 43549U 98067NX  20085.46076057  .00023260  00000-0  19716-3 0  9995
2 43549  51.6376   0.3800 0004981 123.4543 236.6931 15.69557662 96603
ENDUROSAT ONE           
1 43551U 98067NZ  20086.15026632  .00035559  00000-0  24301-3 0  9999
2 43551  51.6346 349.1626 0005602 141.3368 218.8033 15.74425406 97228
EQUISAT                 
1 43552U 98067PA  20085.14159153  .00021929  00000-0  18182-3 0  9999
2 43552  51.6378   0.5389 0005913 128.9868 231.1657 15.70129135 96943
AEROCUBE 12A            
1 43556U 18046C   20085.42146288  .00000793  00000-0  39728-4 0  9994
2 43556  51.6418 149.2490 0008254 358.2947   1.8004 15.29529858 94512
AEROCUBE 12B            
1 43557U 18046D   20085.46766600  .00000922  00000-0  44471-4 0  9990
2 43557  51.6417 149.5489 0008241 358.4337   1.6616 15.29284488 94462
UITMSAT-1               
1 43589U 98067PD  20085.47407468  .00026327  00000-0  20308-3 0  9990
2 43589  51.6346 358.1091 0005465 138.0883 222.0534 15.71745792 92742
MAYA-1                  
1 43590U 98067PE  20085.46707855  .00026884  00000-0  20722-3 0  9992
2 43590  51.6347 358.0714 0005567 139.2619 220.8796 15.71749995 92676
BHUTAN-1                
1 43591U 98067PF  20084.81006363  .00030578  00000-0  23441-3 0  9993
2 43591  51.6362   1.2375 0005713 136.6635 223.4813 15.71804357 92578
SIRIUSSAT-1             
1 43595U 98067PG  20085.95653882  .00026107  00000-0  21597-3 0  9990
2 43595  51.6349 359.1079 0003756 113.2323 246.9070 15.70079701 91887
SIRIUSSAT-2             
1 43596U 98067PH  20086.07632636  .00025432  00000-0  21136-3 0  9998
2 43596  51.6355 359.2246 0004119 110.9933 249.1505 15.69982961 91895
TANUSHA-3               
1 43597U 98067PJ  20084.83361606  .00043098  00000-0  27546-3 0  9996
2 43597  51.6324 357.5070 0004103 130.2488 229.8871 15.75884592 91801
SURFSAT                 
1 43614U 18070B   20086.30625003  .00002275  00000-0  59463-4 0  9996
2 43614  93.0242 120.2271 0012845 304.7263  55.2780 15.38784305 85699
CP7 (DAVE)              
1 43615U 18070C   20085.35484483  .00002188  00000-0  57432-4 0  9993
2 43615  93.0246 119.8284 0013099 308.4271  51.5806 15.38656626 85540
ELFIN-B                 
1 43616U 18070D   20086.24381614  .00003416  00000-0  86201-4 0  9996
2 43616  93.0205 120.1160 0013483 306.8051  53.1966 15.39820526 85716
ELFIN-A                 
1 43617U 18070E   20086.35111194  .00003410  00000-0  85649-4 0  9992
2 43617  93.0260 120.6031 0012705 302.7036  57.2993 15.39971738 85733
CUBEBEL-1 (BSUSAT-1)    
1 43666U 18083E   20086.39421269  .00001154  00000-0  59880-4 0  9992
2 43666  97.4973 113.6506 0013250 292.1088 192.2779 15.18097631 78013
DEBRISSAT-2             
1 43680U 98067PR  20086.15654845  .00093617  00000-0  40724-3 0  9991
2 43680  51.6341 344.5989 0004564 166.0944 194.0186 15.84013890100823
CICERO 10               
1 43690U 18088A   20086.28864062  .00000811  00000-0  35667-4 0  9990
2 43690  85.0368 133.1263 0012618 252.2875 107.6988 15.20099213 76107
IRVINE01                
1 43693U 18088D   20086.42558055  .00001924  00000-0  81083-4 0  9990
2 43693  85.0338 131.9683 0015943 231.1962 128.7857 15.22505546 76210
PROXIMA I               
1 43694U 18088E   20085.38914175  .00000849  00000-0  35455-4 0  9991
2 43694  85.0311 132.4612 0017460 227.6972 132.2791 15.21827535 76050
PROXIMA II              
1 43696U 18088G   20086.30806534  .00000848  00000-0  35427-4 0  9993
2 43696  85.0311 131.8562 0017604 223.9437 136.0406 15.21832067 76190
FACSAT-1                
1 43721U 18096C   20086.38749811  .00001451  00000-0  57311-4 0  9990
2 43721  97.4267 160.3983 0019054  59.4372 300.8744 15.26997543 73718
CENTAURI-2              
1 43722U 18096D   20085.19530032  .00001865  00000-0  71891-4 0  9990
2 43722  97.4277 159.4123 0019140  63.6365 296.6836 15.27443800 73537
INNOSAT-2               
1 43738U 18096V   20086.40714391  .00002542  00000-0  89658-4 0  9997
2 43738  97.4287 162.2521 0025081  66.5334 293.8539 15.29912373 73838
SIRION PATHFINDER-2     
1 43759U 18099B   20086.33042348  .00000129  00000-0  16875-4 0  9991
2 43759  97.7117 159.3823 0015772 100.4993 259.8006 14.95240603 71508
CORVUS-BC 4             
1 43767U 18099K   20085.77213229 -.00000094  00000-0 -33986-5 0  9991
2 43767  97.7104 158.3343 0013292 105.0413 255.2279 14.94684555 71400
MOVE-II                 
1 43780U 18099Y   20085.74689974  .00000869  00000-0  83865-4 0  9995
2 43780  97.7126 158.7191 0015186 112.9931 247.2894 14.95315013 71405
SPACEBEE-7              
1 43816U 18099BL  20086.23819596  .00000098  00000-0  13952-4 0  9999
2 43816  97.7139 159.5425 0015004  96.9621 263.3307 14.95624208 71052
SPACEBEE-5              
1 43817U 18099BM  20086.15624911  .00001459  00000-0  13452-3 0  9992
2 43817  97.7184 159.7843 0014985  98.7193 261.5726 14.96140317 71050
SPACEBEE-6              
1 43818U 18099BN  20085.74328979  .00000911  00000-0  86682-4 0  9990
2 43818  97.7150 159.1560 0014996  99.3483 260.9434 14.95783827 71131
SHIELDS 1               
1 43850U 18104B   20086.39153679  .00000041  00000-0  00000+0 0  9997
2 43850  85.0306 230.2341 0015669  24.3620 335.8425 15.21310980 70842
STF-1                   
1 43852U 18104D   20085.87031351  .00000041  00000-0  00000+0 0  9993
2 43852  85.0330 231.0625 0015605  39.2372 321.0011 15.21106725 70741
ZACUBE-2                
1 43907U 18111AH  20086.42357998  .00000530  00000-0  24252-4 0  9995
2 43907  97.2730 348.6564 0023297  77.8423 282.5423 15.24496697 69366
LUME 1                  
1 43908U 18111AJ  20085.18902780  .00001068  00000-0  45506-4 0  9995
2 43908  97.2732 347.5765 0023117  81.5913 278.7944 15.24864498 69180
AOBA VELOX-IV           
1 43940U 19003J   20086.39083751  .00001944  00000-0  80771-4 0  9990
2 43940  97.2386 140.4884 0025042 153.4713 336.8545 15.24701303 65992
CATSAT-2                
1 44029U 98067PV  20084.33050600  .00021030  00000-0  23657-3 0  9992
2 44029  51.6401  26.6835 0004958 116.5587 243.5916 15.62528945 65207
DELPHINI                
1 44030U 98067PW  20086.18368801  .00016745  00000-0  18413-3 0  9995
2 44030  51.6369  16.4846 0005086 121.6971 238.4520 15.63293494 65470
UNITE                   
1 44031U 98067PX  20086.31849149  .00008439  00000-0  10949-3 0  9997
2 44031  51.6390  20.4282 0004011 115.5897 244.5511 15.59764807 65430
TECHEDSAT 8             
1 44032U 98067PY  20085.87621765  .00206546  26586-4  68994-3 0  9993
2 44032  51.6278 356.2359 0006358 169.9733 190.1400 15.89768574 65698
CATSAT-1                
1 44033U 98067PZ  20086.31302982  .00016753  00000-0  18928-3 0  9991
2 44033  51.6404  16.6798 0004769 121.5118 238.6342 15.62594789 65429
RAAVANA-1               
1 44329U 98067QE  20086.27544512  .00010047  00000-0  14697-3 0  9990
2 44329  51.6408  30.6797 0007068  57.6152 302.5523 15.56254020 44049
UGUISU                  
1 44330U 98067QF  20086.28405331  .00009635  00000-0  14157-3 0  9990
2 44330  51.6406  30.7340 0007067  56.1221 304.0442 15.56189607 44027
NEPALISAT-1             
1 44331U 98067QG  20085.30616910  .00010237  00000-0  14957-3 0  9998
2 44331  51.6404  35.4553 0007099  55.2720 304.8939 15.56262984 43885
SPOOQY-1                
1 44332U 98067QH  20085.36959054  .00009805  00000-0  14387-3 0  9990
2 44332  51.6405  35.1256 0006066  58.4357 301.7226 15.56207599 43851
SPACEBEE-9              
1 44370U 19037F   20085.49857472  .00010020  00000-0  23587-3 0  9990
2 44370  45.0097 224.7527 0012221  46.1246 314.0643 15.42184831 41637
SPACEBEE-8              
1 44371U 19037G   20085.44649632  .00018079  00000-0  37799-3 0  9995
2 44371  45.0109 221.8445 0010032  47.1181 313.0538 15.45236922 41652
IOD-1 GEMS              
1 44385U 98067QK  20085.13904046  .00017028  00000-0  23210-3 0  9995
2 44385  51.6417  35.8738 0003032  34.1989 325.9198 15.57631305 41330
MOVE-IIB                
1 44398U 19038N   20086.37802601  .00001300  00000-0  78625-4 0  9998
2 44398  97.5275  48.7247 0026845  55.7055 304.6711 15.12134195 40029
SONATE                  
1 44400U 19038Q   20086.39485422  .00000490  00000-0  32214-4 0  9995
2 44400  97.5306  48.7603 0026667  54.2102 306.1602 15.11870604 40020
LUCKY-7                 
1 44406U 19038W   20086.09368725  .00000734  00000-0  46093-4 0  9995
2 44406  97.5300  48.5398 0026131  55.0055 305.3623 15.12112554 39971
BEESAT 9                
1 44412U 19038AC  20085.43404398  .00001011  00000-0  62046-4 0  9991
2 44412  97.5292  47.8715 0024388  62.7464 297.6247 15.12153689 39579
JAISAT-1                
1 44419U 19038F   20086.34110898  .00000920  00000-0  56063-4 0  9998
2 44419  97.5296  48.9671 0023161  59.3136 301.0373 15.12638261 40036
SWIATOWID               
1 44426U 98067QL  20086.24166359  .00020811  00000-0  27712-3 0  9996
2 44426  51.6439  30.1778 0003576  33.0298 110.2662 15.58104281 41527
KRAKSAT                 
1 44427U 98067QM  20085.29468390  .00007889  00000-0  12355-3 0  9998
2 44427  51.6421  37.6557 0003729  17.3434 342.7684 15.54737748 41389
VCC A                   
1 44428U 98067QN  20084.18061207  .00012375  00000-0  18340-3 0  9998
2 44428  51.6419  42.2185 0003345  36.3318 323.7900 15.55660480 41224
